{"type": "FeatureCollection", "features": [ {"type": "Feature", "properties": {"norad_id": 33867, "name": "IRIDIUM 33 DEB", "group": "iridium-33-debris", "lat": -39.37605276324099, "lon": 175.97622746837558, "alt_km": 402.7949997467358, "timestamp": "2025-12-07T03:52:32.886462+00:00", "meta": {"OBJECT_NAME": "IRIDIUM 33 DEB", "OBJECT_ID": "1997-051AL", "EPOCH": "2025-12-06T13:04:06.627360", "MEAN_MOTION": 15.58002769, "ECCENTRICITY": 0.00124504, "INCLINATION": 86.3617, "RA_OF_ASC_NODE": 353.2987, "ARG_OF_PERICENTER": 93.4662, "MEAN_ANOMALY": 266.8026, "EPHEMERIS_TYPE": 0, "CLASSIFICATION_TYPE": "U", "NORAD_CAT_ID": 33867, "ELEMENT_SET_NO": 999, "REV_AT_EPOCH": 89414, "BSTAR": 0.0092198689, "MEAN_MOTION_DOT": 0.00758101, "MEAN_MOTION_DDOT": 0}, "tle": {"line1": "1 33867U 97051AL  25340.54452115  .00758101  00000+0  92199-2 0  9993", "line2": "2 33867  86.3617 353.2987 0012450  93.4662 266.8026 15.58002769894148"}}, "geometry": {"type": "Point", "coordinates": [175.97622746837558, -39.37605276324099]}}, {"type": "Feature", "properties": {"norad_id": 33870, "name": "IRIDIUM 33 DEB", "group": "iridium-33-debris", "lat": 69.76419696393756, "lon": -129.2491341765754, "alt_km": 731.8135215857355, "timestamp": "2025-12-07T03:52:32.886473+00:00", "meta": {"OBJECT_NAME": "IRIDIUM 33 DEB", "OBJECT_ID": "1997-051AP", "EPOCH": "2025-12-06T12:28:59.486880", "MEAN_MOTION": 14.45799648, "ECCENTRICITY": 0.00207971, "INCLINATION": 86.3754, "RA_OF_ASC_NODE": 60.9268, "ARG_OF_PERICENTER": 198.6792, "MEAN_ANOMALY": 175.3723, "EPHEMERIS_TYPE": 0, "CLASSIFICATION_TYPE": "U", "NORAD_CAT_ID": 33870, "ELEMENT_SET_NO": 999, "REV_AT_EPOCH": 88047, "BSTAR": 0.0015682537, "MEAN_MOTION_DOT": 5.596e-05, "MEAN_MOTION_DDOT": 0}, "tle": {"line1": "1 33870U 97051AP  25340.52013295  .00005596  00000+0  15683-2 0  9993", "line2": "2 33870  86.3754  60.9268 0020797 198.6792 175.3723 14.45799648880476"}}, "geometry": {"type": "Point", "coordinates": [-129.2491341765754, 69.76419696393756]}}, {"type": "Feature", "properties": {"norad_id": 33881, "name": "IRIDIUM 33 DEB", "group": "iridium-33-debris", "lat": 55.88744644833075, "lon": -76.1862844508028, "alt_km": 683.587252826389, "timestamp": "2025-12-07T03:52:32.886484+00:00", "meta": {"OBJECT_NAME": "IRIDIUM 33 DEB", "OBJECT_ID": "1997-051BA", "EPOCH": "2025-12-06T07:38:56.020416", "MEAN_MOTION": 14.56393916, "ECCENTRICITY": 0.00612815, "INCLINATION": 86.3871, "RA_OF_ASC_NODE": 109.5319, "ARG_OF_PERICENTER": 195.5267, "MEAN_ANOMALY": 193.0658, "EPHEMERIS_TYPE": 0, "CLASSIFICATION_TYPE": "U", "NORAD_CAT_ID": 33881, "ELEMENT_SET_NO": 999, "REV_AT_EPOCH": 87407, "BSTAR": 0.003562561, "MEAN_MOTION_DOT": 0.00016256, "MEAN_MOTION_DDOT": 0}, "tle": {"line1": "1 33881U 97051BA  25340.31870394  .00016256  00000+0  35626-2 0  9997", "line2": "2 33881  86.3871 109.5319 0061281 195.5267 193.0658 14.56393916874074"}}, "geometry": {"type": "Point", "coordinates": [-76.1862844508028, 55.88744644833075]}}, {"type": "Feature", "properties": {"norad_id": 33884, "name": "IRIDIUM 33 DEB", "group": "iridium-33-debris", "lat": 12.998610725553561, "lon": 13.176188300227542, "alt_km": 632.8291999808253, "timestamp": "2025-12-07T03:52:32.886495+00:00", "meta": {"OBJECT_NAME": "IRIDIUM 33 DEB", "OBJECT_ID": "1997-051BD", "EPOCH": "2025-12-06T08:22:17.400864", "MEAN_MOTION": 14.77245967, "ECCENTRICITY": 0.00103461, "INCLINATION": 86.3691, "RA_OF_ASC_NODE": 12.703, "ARG_OF_PERICENTER": 347.5842, "MEAN_ANOMALY": 26.4048, "EPHEMERIS_TYPE": 0, "CLASSIFICATION_TYPE": "U", "NORAD_CAT_ID": 33884, "ELEMENT_SET_NO": 999, "REV_AT_EPOCH": 88753, "BSTAR": 0.0022939215, "MEAN_MOTION_DOT": 0.00016315, "MEAN_MOTION_DDOT": 0}, "tle": {"line1": "1 33884U 97051BD  25340.34881251  .00016315  00000+0  22939-2 0  9996", "line2": "2 33884  86.3691  12.7030 0010346 347.5842  26.4048 14.77245967887538"}}, "geometry": {"type": "Point", "coordinates": [13.176188300227542, 12.998610725553561]}}, {"type": "Feature", "properties": {"norad_id": 33886, "name": "IRIDIUM 33 DEB", "group": "iridium-33-debris", "lat": 46.78433464395716, "lon": 73.4363997812339, "alt_km": 774.5059626403472, "timestamp": "2025-12-07T03:52:32.886506+00:00", "meta": {"OBJECT_NAME": "IRIDIUM 33 DEB", "OBJECT_ID": "1997-051BF", "EPOCH": "2025-12-06T12:39:24.568416", "MEAN_MOTION": 14.3604061, "ECCENTRICITY": 0.00120749, "INCLINATION": 86.3832, "RA_OF_ASC_NODE": 69.8433, "ARG_OF_PERICENTER": 265.6079, "MEAN_ANOMALY": 105.1045, "EPHEMERIS_TYPE": 0, "CLASSIFICATION_TYPE": "U", "NORAD_CAT_ID": 33886, "ELEMENT_SET_NO": 999, "REV_AT_EPOCH": 87963, "BSTAR": 0.00040568694, "MEAN_MOTION_DOT": 1.199e-05, "MEAN_MOTION_DDOT": 0}, "tle": {"line1": "1 33886U 97051BF  25340.52736769  .00001199  00000+0  40569-3 0  9995", "line2": "2 33886  86.3832  69.8433 0012074 265.6079 105.1045 14.36040610879636"}}, "geometry": {"type": "Point", "coordinates": [73.4363997812339, 46.78433464395716]}}, {"type": "Feature", "properties": {"norad_id": 33887, "name": "IRIDIUM 33 DEB", "group": "iridium-33-debris", "lat": -40.28156086769187, "lon": 2.6566967855637755, "alt_km": 773.1258941461656, "timestamp": "2025-12-07T03:52:32.886518+00:00", "meta": {"OBJECT_NAME": "IRIDIUM 33 DEB", "OBJECT_ID": "1997-051BG", "EPOCH": "2025-12-06T13:38:10.904064", "MEAN_MOTION": 14.37212873, "ECCENTRICITY": 0.00040896, "INCLINATION": 86.3048, "RA_OF_ASC_NODE": 6.0519, "ARG_OF_PERICENTER": 255.8659, "MEAN_ANOMALY": 235.9824, "EPHEMERIS_TYPE": 0, "CLASSIFICATION_TYPE": "U", "NORAD_CAT_ID": 33887, "ELEMENT_SET_NO": 999, "REV_AT_EPOCH": 88076, "BSTAR": 0.00026828593, "MEAN_MOTION_DOT": 8.18e-06, "MEAN_MOTION_DDOT": 0}, "tle": {"line1": "1 33887U 97051BG  25340.56818176  .00000818  00000+0  26829-3 0  9993", "line2": "2 33887  86.3048   6.0519 0004089 255.8659 235.9824 14.37212873880762"}}, "geometry": {"type": "Point", "coordinates": [2.6566967855637755, -40.28156086769187]}}, {"type": "Feature", "properties": {"norad_id": 33953, "name": "IRIDIUM 33 DEB", "group": "iridium-33-debris", "lat": 6.720709721330634, "lon": -124.2262235076785, "alt_km": 702.9653727366667, "timestamp": "2025-12-07T03:52:32.886529+00:00", "meta": {"OBJECT_NAME": "IRIDIUM 33 DEB", "OBJECT_ID": "1997-051BN", "EPOCH": "2025-12-05T23:50:27.951648", "MEAN_MOTION": 14.55218556, "ECCENTRICITY": 0.00185309, "INCLINATION": 86.3851, "RA_OF_ASC_NODE": 56.7073, "ARG_OF_PERICENTER": 123.3499, "MEAN_ANOMALY": 54.0321, "EPHEMERIS_TYPE": 0, "CLASSIFICATION_TYPE": "U", "NORAD_CAT_ID": 33953, "ELEMENT_SET_NO": 999, "REV_AT_EPOCH": 88205, "BSTAR": 0.0020564879, "MEAN_MOTION_DOT": 8.94e-05, "MEAN_MOTION_DDOT": 0}, "tle": {"line1": "1 33953U 97051BN  25339.99337907  .00008940  00000+0  20565-2 0  9994", "line2": "2 33953  86.3851  56.7073 0018530 123.3499  54.0321 14.55218556882052"}}, "geometry": {"type": "Point", "coordinates": [-124.2262235076785, 6.720709721330634]}}, {"type": "Feature", "properties": {"norad_id": 33960, "name": "IRIDIUM 33 DEB", "group": "iridium-33-debris", "lat": 77.25731730314064, "lon": 95.30025162946886, "alt_km": 602.9712733622764, "timestamp": "2025-12-07T03:52:32.886539+00:00", "meta": {"OBJECT_NAME": "IRIDIUM 33 DEB", "OBJECT_ID": "1997-051BV", "EPOCH": "2025-12-06T15:18:08.666784", "MEAN_MOTION": 14.84702604, "ECCENTRICITY": 0.00072103, "INCLINATION": 86.2537, "RA_OF_ASC_NODE": 292.3895, "ARG_OF_PERICENTER": 70.8498, "MEAN_ANOMALY": 112.9109, "EPHEMERIS_TYPE": 0, "CLASSIFICATION_TYPE": "U", "NORAD_CAT_ID": 33960, "ELEMENT_SET_NO": 999, "REV_AT_EPOCH": 88776, "BSTAR": 0.0054964457, "MEAN_MOTION_DOT": 0.00046835, "MEAN_MOTION_DDOT": 0}, "tle": {"line1": "1 33960U 97051BV  25340.63760031  .00046835  00000+0  54964-2 0  9998", "line2": "2 33960  86.2537 292.3895 0007210  70.8498 112.9109 14.84702604887763"}}, "geometry": {"type": "Point", "coordinates": [95.30025162946886, 77.25731730314064]}}, {"type": "Feature", "properties": {"norad_id": 33966, "name": "IRIDIUM 33 DEB", "group": "iridium-33-debris", "lat": 53.15822514324717, "lon": 53.25107835685984, "alt_km": 726.5000597664275, "timestamp": "2025-12-07T03:52:32.886550+00:00", "meta": {"OBJECT_NAME": "IRIDIUM 33 DEB", "OBJECT_ID": "1997-051CB", "EPOCH": "2025-12-06T14:55:28.956288", "MEAN_MOTION": 14.49555766, "ECCENTRICITY": 0.0006717, "INCLINATION": 86.3929, "RA_OF_ASC_NODE": 48.6529, "ARG_OF_PERICENTER": 209.7556, "MEAN_ANOMALY": 269.4553, "EPHEMERIS_TYPE": 0, "CLASSIFICATION_TYPE": "U", "NORAD_CAT_ID": 33966, "ELEMENT_SET_NO": 999, "REV_AT_EPOCH": 88353, "BSTAR": 0.0010447723, "MEAN_MOTION_DOT": 4.027e-05, "MEAN_MOTION_DDOT": 0}, "tle": {"line1": "1 33966U 97051CB  25340.62186292  .00004027  00000+0  10448-2 0  9990", "line2": "2 33966  86.3929  48.6529 0006717 209.7556 269.4553 14.49555766883538"}}, "geometry": {"type": "Point", "coordinates": [53.25107835685984, 53.15822514324717]}}, {"type": "Feature", "properties": {"norad_id": 34071, "name": "IRIDIUM 33 DEB", "group": "iridium-33-debris", "lat": 57.35155319593273, "lon": -165.47108147299548, "alt_km": 715.2014937846579, "timestamp": "2025-12-07T03:52:32.886561+00:00", "meta": {"OBJECT_NAME": "IRIDIUM 33 DEB", "OBJECT_ID": "1997-051CE", "EPOCH": "2025-12-06T12:24:05.065920", "MEAN_MOTION": 14.49423554, "ECCENTRICITY": 0.00096974, "INCLINATION": 86.3458, "RA_OF_ASC_NODE": 20.5333, "ARG_OF_PERICENTER": 124.3712, "MEAN_ANOMALY": 235.8411, "EPHEMERIS_TYPE": 0, "CLASSIFICATION_TYPE": "U", "NORAD_CAT_ID": 34071, "ELEMENT_SET_NO": 999, "REV_AT_EPOCH": 88244, "BSTAR": 0.0010979884, "MEAN_MOTION_DOT": 4.221e-05, "MEAN_MOTION_DDOT": 0}, "tle": {"line1": "1 34071U 97051CE  25340.51672530  .00004221  00000+0  10980-2 0  9998", "line2": "2 34071  86.3458  20.5333 0009697 124.3712 235.8411 14.49423554882449"}}, "geometry": {"type": "Point", "coordinates": [-165.47108147299548, 57.35155319593273]}}]}